{"type": "FeatureCollection", "features": [ {"type": "Feature", "properties": {"norad_id": 57401, "name": "TIANMU-1 09", "group": "weather", "lat": 8.02868515772507, "lon": -138.99754954101894, "alt_km": 484.1144837773545, "timestamp": "2025-12-16T21:38:56.812244+00:00", "meta": {"OBJECT_NAME": "TIANMU-1 09", "OBJECT_ID": "2023-101C", "EPOCH": "2025-12-16T08:19:40.833696", "MEAN_MOTION": 15.28139322, "ECCENTRICITY": 0.00066803, "INCLINATION": 97.2824, "RA_OF_ASC_NODE": 39.4264, "ARG_OF_PERICENTER": 74.1532, "MEAN_ANOMALY": 286.0444, "EPHEMERIS_TYPE": 0, "CLASSIFICATION_TYPE": "U", "NORAD_CAT_ID": 57401, "ELEMENT_SET_NO": 999, "REV_AT_EPOCH": 13370, "BSTAR": 0.00021410975, "MEAN_MOTION_DOT": 5.804e-05, "MEAN_MOTION_DDOT": 0}, "tle": {"line1": "1 57401U 23101C   25350.34700039  .00005804  00000+0  21411-3 0  9993", "line2": "2 57401  97.2824  39.4264 0006680  74.1532 286.0444 15.28139322133709"}}, "geometry": {"type": "Point", "coordinates": [-138.99754954101894, 8.02868515772507]}}, {"type": "Feature", "properties": {"norad_id": 57402, "name": "TIANMU-1 10", "group": "weather", "lat": -16.57156025290105, "lon": 43.006504040367254, "alt_km": 486.1235570027793, "timestamp": "2025-12-16T21:38:56.812254+00:00", "meta": {"OBJECT_NAME": "TIANMU-1 10", "OBJECT_ID": "2023-101D", "EPOCH": "2025-12-16T09:08:58.557984", "MEAN_MOTION": 15.28131239, "ECCENTRICITY": 0.00084353, "INCLINATION": 97.2905, "RA_OF_ASC_NODE": 40.3136, "ARG_OF_PERICENTER": 72.9808, "MEAN_ANOMALY": 287.2355, "EPHEMERIS_TYPE": 0, "CLASSIFICATION_TYPE": "U", "NORAD_CAT_ID": 57402, "ELEMENT_SET_NO": 999, "REV_AT_EPOCH": 13370, "BSTAR": 0.00021491278, "MEAN_MOTION_DOT": 5.826e-05, "MEAN_MOTION_DDOT": 0}, "tle": {"line1": "1 57402U 23101D   25350.38123331  .00005826  00000+0  21491-3 0  9994", "line2": "2 57402  97.2905  40.3136 0008435  72.9808 287.2355 15.28131239133704"}}, "geometry": {"type": "Point", "coordinates": [43.006504040367254, -16.57156025290105]}}, {"type": "Feature", "properties": {"norad_id": 57490, "name": "FENGYUN 3F", "group": "weather", "lat": 63.01093573408402, "lon": 41.614311278536164, "alt_km": 819.1609494045915, "timestamp": "2025-12-16T21:38:56.812267+00:00", "meta": {"OBJECT_NAME": "FENGYUN 3F", "OBJECT_ID": "2023-111A", "EPOCH": "2025-12-16T07:49:02.548416", "MEAN_MOTION": 14.19894527, "ECCENTRICITY": 6.964e-05, "INCLINATION": 98.708, "RA_OF_ASC_NODE": 58.5612, "ARG_OF_PERICENTER": 108.0674, "MEAN_ANOMALY": 252.0578, "EPHEMERIS_TYPE": 0, "CLASSIFICATION_TYPE": "U", "NORAD_CAT_ID": 57490, "ELEMENT_SET_NO": 999, "REV_AT_EPOCH": 12291, "BSTAR": 5.3567374e-05, "MEAN_MOTION_DOT": 7e-07, "MEAN_MOTION_DDOT": 0}, "tle": {"line1": "1 57490U 23111A   25350.32572394  .00000070  00000+0  53567-4 0  9999", "line2": "2 57490  98.7080  58.5612 0000696 108.0674 252.0578 14.19894527122917"}}, "geometry": {"type": "Point", "coordinates": [41.614311278536164, 63.01093573408402]}}, {"type": "Feature", "properties": {"norad_id": 58584, "name": "ARKTIKA-M 2", "group": "weather", "lat": 49.176439676463914, "lon": -149.78614952426668, "alt_km": 28197.854744014887, "timestamp": "2025-12-16T21:38:56.812281+00:00", "meta": {"OBJECT_NAME": "ARKTIKA-M 2", "OBJECT_ID": "2023-198A", "EPOCH": "2025-12-15T07:41:54.278304", "MEAN_MOTION": 2.00603484, "ECCENTRICITY": 0.68650912, "INCLINATION": 63.2249, "RA_OF_ASC_NODE": 174.6089, "ARG_OF_PERICENTER": 268.096, "MEAN_ANOMALY": 18.8351, "EPHEMERIS_TYPE": 0, "CLASSIFICATION_TYPE": "U", "NORAD_CAT_ID": 58584, "ELEMENT_SET_NO": 999, "REV_AT_EPOCH": 1463, "BSTAR": 0, "MEAN_MOTION_DOT": 2.02e-06, "MEAN_MOTION_DDOT": 0}, "tle": {"line1": "1 58584U 23198A   25349.32076711  .00000202  00000+0  00000+0 0  9995", "line2": "2 58584  63.2249 174.6089 6865091 268.0960  18.8351  2.00603484 14636"}}, "geometry": {"type": "Point", "coordinates": [-149.78614952426668, 49.176439676463914]}}, {"type": "Feature", "properties": {"norad_id": 58645, "name": "TIANMU-1 11", "group": "weather", "lat": 68.17989424110743, "lon": -150.7110826266168, "alt_km": 490.50293362302546, "timestamp": "2025-12-16T21:38:56.812294+00:00", "meta": {"OBJECT_NAME": "TIANMU-1 11", "OBJECT_ID": "2023-205A", "EPOCH": "2025-12-16T05:24:50.870592", "MEAN_MOTION": 15.2464379, "ECCENTRICITY": 0.00076837, "INCLINATION": 97.3606, "RA_OF_ASC_NODE": 9.7879, "ARG_OF_PERICENTER": 295.87, "MEAN_ANOMALY": 64.1745, "EPHEMERIS_TYPE": 0, "CLASSIFICATION_TYPE": "U", "NORAD_CAT_ID": 58645, "ELEMENT_SET_NO": 999, "REV_AT_EPOCH": 10962, "BSTAR": 0.00019453235, "MEAN_MOTION_DOT": 4.735e-05, "MEAN_MOTION_DDOT": 0}, "tle": {"line1": "1 58645U 23205A   25350.22558878  .00004735  00000+0  19453-3 0  9993", "line2": "2 58645  97.3606   9.7879 0007683 295.8700  64.1745 15.24643790109622"}}, "geometry": {"type": "Point", "coordinates": [-150.7110826266168, 68.17989424110743]}}, {"type": "Feature", "properties": {"norad_id": 58646, "name": "TIANMU-1 12", "group": "weather", "lat": -38.651465698941415, "lon": 16.189632827359837, "alt_km": 496.0400785811544, "timestamp": "2025-12-16T21:38:56.812307+00:00", "meta": {"OBJECT_NAME": "TIANMU-1 12", "OBJECT_ID": "2023-205B", "EPOCH": "2025-12-16T06:04:02.186976", "MEAN_MOTION": 15.24527981, "ECCENTRICITY": 0.00057984, "INCLINATION": 97.3592, "RA_OF_ASC_NODE": 9.619, "ARG_OF_PERICENTER": 275.3539, "MEAN_ANOMALY": 84.7037, "EPHEMERIS_TYPE": 0, "CLASSIFICATION_TYPE": "U", "NORAD_CAT_ID": 58646, "ELEMENT_SET_NO": 999, "REV_AT_EPOCH": 10961, "BSTAR": 0.00020181007, "MEAN_MOTION_DOT": 4.896e-05, "MEAN_MOTION_DDOT": 0}, "tle": {"line1": "1 58646U 23205B   25350.25280309  .00004896  00000+0  20181-3 0  9996", "line2": "2 58646  97.3592   9.6190 0005798 275.3539  84.7037 15.24527981109614"}}, "geometry": {"type": "Point", "coordinates": [16.189632827359837, -38.651465698941415]}}, {"type": "Feature", "properties": {"norad_id": 58647, "name": "TIANMU-1 13", "group": "weather", "lat": 41.89158096870728, "lon": -162.88076209866642, "alt_km": 490.2440814172023, "timestamp": "2025-12-16T21:38:56.812320+00:00", "meta": {"OBJECT_NAME": "TIANMU-1 13", "OBJECT_ID": "2023-205C", "EPOCH": "2025-12-16T08:26:42.933120", "MEAN_MOTION": 15.24572171, "ECCENTRICITY": 0.00060786, "INCLINATION": 97.3621, "RA_OF_ASC_NODE": 9.9187, "ARG_OF_PERICENTER": 250.8248, "MEAN_ANOMALY": 109.2332, "EPHEMERIS_TYPE": 0, "CLASSIFICATION_TYPE": "U", "NORAD_CAT_ID": 58647, "ELEMENT_SET_NO": 999, "REV_AT_EPOCH": 10962, "BSTAR": 0.00020943749, "MEAN_MOTION_DOT": 5.091e-05, "MEAN_MOTION_DDOT": 0}, "tle": {"line1": "1 58647U 23205C   25350.35188580  .00005091  00000+0  20944-3 0  9991", "line2": "2 58647  97.3621   9.9187 0006078 250.8248 109.2332 15.24572171109627"}}, "geometry": {"type": "Point", "coordinates": [-162.88076209866642, 41.89158096870728]}}, {"type": "Feature", "properties": {"norad_id": 58648, "name": "TIANMU-1 14", "group": "weather", "lat": -47.97545524340074, "lon": -178.43683819590606, "alt_km": 494.7674355193667, "timestamp": "2025-12-16T21:38:56.812330+00:00", "meta": {"OBJECT_NAME": "TIANMU-1 14", "OBJECT_ID": "2023-205D", "EPOCH": "2025-12-16T08:02:52.029888", "MEAN_MOTION": 15.24555575, "ECCENTRICITY": 0.0006865, "INCLINATION": 97.3553, "RA_OF_ASC_NODE": 9.2479, "ARG_OF_PERICENTER": 256.8067, "MEAN_ANOMALY": 103.2405, "EPHEMERIS_TYPE": 0, "CLASSIFICATION_TYPE": "U", "NORAD_CAT_ID": 58648, "ELEMENT_SET_NO": 999, "REV_AT_EPOCH": 10962, "BSTAR": 0.00021283929, "MEAN_MOTION_DOT": 5.173e-05, "MEAN_MOTION_DDOT": 0}, "tle": {"line1": "1 58648U 23205D   25350.33532442  .00005173  00000+0  21284-3 0  9999", "line2": "2 58648  97.3553   9.2479 0006865 256.8067 103.2405 15.24555575109622"}}, "geometry": {"type": "Point", "coordinates": [-178.43683819590606, -47.97545524340074]}}, {"type": "Feature", "properties": {"norad_id": 58660, "name": "TIANMU-1 19", "group": "weather", "lat": 6.2855422764890925, "lon": -77.2446569620979, "alt_km": 482.86643103489314, "timestamp": "2025-12-16T21:38:56.812340+00:00", "meta": {"OBJECT_NAME": "TIANMU-1 19", "OBJECT_ID": "2023-208A", "EPOCH": "2025-12-16T08:19:02.796960", "MEAN_MOTION": 15.279177, "ECCENTRICITY": 0.00042337, "INCLINATION": 97.4388, "RA_OF_ASC_NODE": 101.3764, "ARG_OF_PERICENTER": 236.9342, "MEAN_ANOMALY": 123.1491, "EPHEMERIS_TYPE": 0, "CLASSIFICATION_TYPE": "U", "NORAD_CAT_ID": 58660, "ELEMENT_SET_NO": 999, "REV_AT_EPOCH": 10937, "BSTAR": 0.00026998775, "MEAN_MOTION_DOT": 7.284e-05, "MEAN_MOTION_DDOT": 0}, "tle": {"line1": "1 58660U 23208A   25350.34656015  .00007284  00000+0  26999-3 0  9993", "line2": "2 58660  97.4388 101.3764 0004233 236.9342 123.1491 15.27917700109379"}}, "geometry": {"type": "Point", "coordinates": [-77.2446569620979, 6.2855422764890925]}}, {"type": "Feature", "properties": {"norad_id": 58661, "name": "TIANMU-1 20", "group": "weather", "lat": -81.39328837653962, "lon": -137.21869804721706, "alt_km": 481.6323589601743, "timestamp": "2025-12-16T21:38:56.812351+00:00", "meta": {"OBJECT_NAME": "TIANMU-1 20", "OBJECT_ID": "2023-208B", "EPOCH": "2025-12-16T06:21:20.081664", "MEAN_MOTION": 15.29106671, "ECCENTRICITY": 0.00063825, "INCLINATION": 97.4326, "RA_OF_ASC_NODE": 101.7458, "ARG_OF_PERICENTER": 250.9893, "MEAN_ANOMALY": 109.0656, "EPHEMERIS_TYPE": 0, "CLASSIFICATION_TYPE": "U", "NORAD_CAT_ID": 58661, "ELEMENT_SET_NO": 999, "REV_AT_EPOCH": 10943, "BSTAR": 0.0002630936, "MEAN_MOTION_DOT": 7.362e-05, "MEAN_MOTION_DDOT": 0}, "tle": {"line1": "1 58661U 23208B   25350.26481576  .00007362  00000+0  26309-3 0  9995", "line2": "2 58661  97.4326 101.7458 0006382 250.9893 109.0656 15.29106671109432"}}, "geometry": {"type": "Point", "coordinates": [-137.21869804721706, -81.39328837653962]}}]}